HORYU-4                 
1 41340U 16012D   21075.17253118  .00000910  00000-0  61512-4 0  9994
2 41340  31.0061  41.0663 0013728 325.9201  34.0553 15.01783288278750
E-ST@R-II               
1 41459U 16025D   21075.11202764  .00001706  00000-0  87146-4 0  9999
2 41459  98.1257 205.8651 0162067  17.5615 343.1158 15.07602035268359
AAUSAT 4                
1 41460U 16025E   21075.12550015  .00002980  00000-0  14314-3 0  9998
2 41460  98.1253 209.3028 0149074   2.8537 357.3540 15.10439087268628
BEESAT-4                
1 41619U 16040W   21074.71310214  .00003402  00000-0  13880-3 0  9997
2 41619  97.2817 133.3974 0009228 308.1820  51.8587 15.25060987250723
CANX-7                  
1 41788U 16059F   21075.03459744  .00014183  00000-0  17051-2 0  9993
2 41788  98.2530 176.7881 0032244 148.1367 212.1898 14.83685897240006
RAVAN                   
1 41849U 16067B   21074.87691910  .00001462  00000-0  12597-3 0  9991
2 41849  97.9504 195.7509 0009879  69.0028 291.2250 14.98915741237277
CELTEE 1                
1 41850U 16067C   21075.06658406  .00000940  00000-0  86145-4 0  9999
2 41850  97.9421 192.8075 0010120  69.7005 290.5303 14.97380028237146
OPTICUBE 04             
1 41851U 16067D   21074.84816748  .00000195  00000-0  22246-4 0  9994
2 41851  97.9404 192.0422 0009881  70.6584 289.5705 14.97056446237082
AEROCUBE 8D             
1 41852U 16067E   21075.06065621  .00000848  00000-0  78721-4 0  9990
2 41852  97.9409 192.1173 0010857  71.4059 288.8341 14.97130935237098
AEROCUBE 8C             
1 41853U 16067F   21075.03166162 -.00000031  00000-0  26337-5 0  9992
2 41853  97.9408 191.9657 0011148  70.1325 290.1096 14.97100350237088
PROMETHEUS 2-1          
1 41854U 16067G   21075.20126857  .00001409  00000-0  12590-3 0  9992
2 41854  97.9419 192.6616 0011642  71.0660 289.1822 14.97539864237132
PROMETHEUS 2-3          
1 41855U 16067H   21075.19967554  .00001332  00000-0  11922-3 0  9991
2 41855  97.9421 192.7070 0011767  71.3708 288.8790 14.97554507237136
INS-1B                  
1 41954U 17008G   21074.89551080  .00002839  00000-0  11383-3 0  9990
2 41954  97.3180 140.0309 0010384  68.2191 292.0151 15.25774743226749
BGUSAT                  
1 41999U 17008BD  21075.13875695  .00005038  00000-0  18004-3 0  9999
2 41999  97.3331 146.1292 0009094  73.0135 287.2101 15.29241201226442
DIDO-2                  
1 42000U 17008BE  21074.74088538  .00001849  00000-0  76551-4 0  9999
2 42000  97.3189 140.2281 0010004  84.8246 275.4133 15.25132353226106
PEASSS                  
1 42015U 17008BV  21074.76012380  .00002905  00000-0  11393-3 0  9995
2 42015  97.3218 142.4559 0007907  86.0190 274.1953 15.26516444226729
AL-FARABI 1             
1 42016U 17008BW  21074.74346766  .00003833  00000-0  14457-3 0  9997
2 42016  97.3262 143.9994 0007698  85.4270 274.7849 15.27621037226925
NAYIF-1 (EO-88)         
1 42017U 17008BX  21074.64880977  .00003858  00000-0  14529-3 0  9991
2 42017  97.3254 143.9147 0007736  85.0159 275.1964 15.27670233226938
UCLSAT                  
1 42765U 17036A   21074.86898000  .00002634  00000-0  10994-3 0  9995
2 42765  97.2625 127.3473 0012108 141.9387 218.2709 15.24457913207918
LITUANICASAT-2          
1 42768U 17036D   21074.89982332  .00004500  00000-0  17927-3 0  9990
2 42768  97.2696 127.9037 0015480 133.1282 227.1254 15.25614825207208
AALTO-1                 
1 42775U 17036L   21074.70146478  .00001712  00000-0  76801-4 0  9990
2 42775  97.2604 124.1739 0014730 139.8873 220.3454 15.22426771206933
URSA MAIOR              
1 42776U 17036M   21074.85084449  .00001665  00000-0  74269-4 0  9999
2 42776  97.2617 124.7322 0014568 138.9485 221.2851 15.22667022206971
COMPASS 2               
1 42777U 17036N   21074.70895092  .00003935  00000-0  15943-3 0  9993
2 42777  97.2679 127.9755 0013194 134.3975 225.8345 15.25154461207120
DIAMOND RED             
1 42783U 17036U   21075.13104805  .00001873  00000-0  81034-4 0  9997
2 42783  97.2631 126.5622 0012767 144.3837 215.8255 15.23574090207105
PEGASUS                 
1 42784U 17036V   21075.08622867  .00002355  00000-0  99722-4 0  9994
2 42784  97.2631 127.1293 0012673 142.9319 217.2796 15.24065899207134
DIAMOND GREEN           
1 42785U 17036W   21074.86736531  .00001984  00000-0  85667-4 0  9994
2 42785  97.2634 126.3508 0012666 145.8829 214.3225 15.23580210207131
DIAMOND BLUE            
1 42786U 17036X   21074.86636794  .00001895  00000-0  81956-4 0  9993
2 42786  97.2632 126.3435 0012503 146.0663 214.1376 15.23576873207133
NUDTSAT                 
1 42787U 17036Y   21075.20537270  .00003101  00000-0  12390-3 0  9999
2 42787  97.2699 129.3553 0010884 133.3542 226.8609 15.25803549207118
SUCHAI                  
1 42788U 17036Z   21074.86898391  .00002896  00000-0  11944-3 0  9999
2 42788  97.2642 127.7901 0012236 141.1039 219.1081 15.24779128207222
SKCUBE                  
1 42789U 17036AA  21074.88293058  .00002665  00000-0  11087-3 0  9993
2 42789  97.2635 127.5588 0012121 141.5196 218.6908 15.24548823207133
VZLUSAT-1               
1 42790U 17036AB  21074.87020040  .00003562  00000-0  14199-3 0  9997
2 42790  97.2665 129.0186 0011635 137.9160 222.2975 15.25783989207217
ROBUSTA-1B              
1 42792U 17036AD  21074.86596306  .00002804  00000-0  11576-3 0  9995
2 42792  97.2638 127.8859 0011708 141.4001 218.8077 15.24774737207165
CICERO 6                
1 42793U 17036AE  21074.86185178  .00001741  00000-0  75097-4 0  9995
2 42793  97.2615 126.8776 0011001 144.4533 215.7439 15.23797144207183
D-SAT                   
1 42794U 17036AF  21075.04073743  .00000233  00000-0  25336-4 0  9997
2 42794  97.4699  99.8588 0125877 177.3836 182.8071 14.91478792203176
CORVUS BC2              
1 42846U 17042X   21074.89292652  .00000152  00000-0  20076-4 0  9992
2 42846  97.4873 311.6232 0011181  91.1796 269.0705 14.92246061199886
CORVUS BC1              
1 42847U 17042Y   21074.60191448  .00000512  00000-0  55174-4 0  9990
2 42847  97.4877 311.5667 0010792  91.2334 269.0122 14.92348099199841
MIRATA                  
1 43015U 17073C   21075.19600329  .00001637  00000-0  13103-3 0  9994
2 43015  97.7104 343.0555 0249307 241.4735 116.1175 14.80430514179413
MAKERSAT 0              
1 43016U 17073D   21075.18621884  .00001096  00000-0  90029-4 0  9995
2 43016  97.7138 343.1383 0252801 243.3442 114.1680 14.79774372179375
DELLINGR (RBLE)         
1 43021U 98067NJ  21075.04378221  .00078061  00000-0  27013-3 0  9990
2 43021  51.6291 318.9700 0000824 164.9383 195.1647 15.88793551189724
AEROCUBE 7B (OCSD B)    
1 43042U 17071F   21074.52355097  .00010854  00000-0  22011-3 0  9996
2 43042  51.6370 173.7241 0003723 327.7575  32.3184 15.46914684184285
AEROCUBE 7C (OCSD C)    
1 43043U 17071G   21074.73016824  .00010410  00000-0  21250-3 0  9994
2 43043  51.6363 172.8653 0003999 332.1318  27.9455 15.46771970184285
CHEFSAT                 
1 43044U 17071H   21075.21230773  .00019318  00000-0  28054-3 0  9995
2 43044  51.6346 142.7250 0003878 352.7310   7.3625 15.55813551184735
ASGARDIA 1              
1 43049U 17071N   21074.79151950  .00009662  00000-0  19834-3 0  9998
2 43049  51.6380 171.8859 0002085 356.3568   3.7403 15.46703070184301
ISARA                   
1 43050U 17071P   21075.18503966  .00016161  00000-0  25480-3 0  9998
2 43050  51.6328 148.3471 0002200   6.6932 353.4087 15.53696937184644
PROPCUBE 2 (FAUNA)      
1 43052U 17071R   21074.67817149  .00011382  00000-0  22624-3 0  9991
2 43052  51.6366 169.6370 0002005 354.3558   5.7407 15.47446446184310
CORVUS BC3              
1 43118U 18004H   21075.18947757  .00001597  00000-0  68854-4 0  9990
2 43118  97.4117 148.8489 0010387 168.8603 191.2866 15.23987734176377
MICROMAS-2A             
1 43131U 18004W   21074.74671480  .00005158  00000-0  19887-3 0  9991
2 43131  97.4181 151.2791 0009131 164.3222 195.8301 15.26726676176463
SPACEBEE-4              
1 43139U 18004AE  21074.76577554  .00007043  00000-0  25514-3 0  9997
2 43139  97.4236 153.2809 0008551 162.7997 197.3534 15.28661121176572
SPACEBEE-3              
1 43140U 18004AF  21074.77259557  .00009051  00000-0  31277-3 0  9994
2 43140  97.4263 154.5130 0008214 159.5561 200.6009 15.30122662176640
SPACEBEE-2              
1 43141U 18004AG  21075.20714155  .00007446  00000-0  25380-3 0  9998
2 43141  97.4278 155.4188 0008216 156.9569 203.2042 15.30635255176734
SPACEBEE-1              
1 43142U 18004AH  21074.76772218  .00011123  00000-0  37082-3 0  9992
2 43142  97.4286 155.4484 0008104 157.6431 202.5165 15.31230395176684
CICERO 7                
1 43143U 18004AJ  21074.81491967  .00003920  00000-0  15227-3 0  9991
2 43143  97.4156 151.4433 0007222 170.4783 189.6593 15.26645189176498
GOMX-4B                 
1 43196U 18015E   21075.08908305  .00000884  00000-0  38492-4 0  9996
2 43196  97.4690 208.2523 0017232 225.0614 134.9227 15.24781374173288
GOMX-4A                 
1 43197U 18015F   21075.20456102  .00001857  00000-0  76756-4 0  9990
2 43197  97.4675 208.5605 0017278 226.6465 254.1189 15.25162220173328
TEMPEST-D               
1 43547U 98067NV  21075.20686857  .00154868  00000-0  76431-3 0  9996
2 43547  51.6363   9.8941 0000960  42.1184 317.9892 15.81112403152143
AEROCUBE 12A            
1 43556U 18046C   21075.15558208  .00003066  00000-0  11223-3 0  9998
2 43556  51.6396 238.9281 0007870 184.1199 175.9719 15.31181068148986
AEROCUBE 12B            
1 43557U 18046D   21074.82481000  .00003159  00000-0  11701-3 0  9991
2 43557  51.6391 241.9440 0008038 182.1011 177.9937 15.30671340148868
SURFSAT                 
1 43614U 18070B   21074.55782560  .00006306  00000-0  15155-3 0  9991
2 43614  93.0224 266.9710 0015039  18.5475 341.6326 15.41233315140209
CP7 (DAVE)              
1 43615U 18070C   21074.49354200  .00006023  00000-0  14599-3 0  9998
2 43615  93.0227 266.9121 0015220  18.5559 341.6248 15.40975641140188
